CCSDS_OMM_VERS = 2.0
CREATION_DATE  = 
ORIGINATOR     = 

OBJECT_NAME    = UNKNOWN
OBJECT_ID      = 
CENTER_NAME    = EARTH
REF_FRAME      = TEME
TIME_SYSTEM    = UTC
MEAN_ELEMENT_THEORY = SGP/SGP4

EPOCH          = 2026-04-01T00:06:11.901888
MEAN_MOTION    = 14.34316426
ECCENTRICITY   = .0062018
INCLINATION    = 82.9137
RA_OF_ASC_NODE = 192.9270
ARG_OF_PERICENTER = 176.4212
MEAN_ANOMALY   = 183.7434

EPHEMERIS_TYPE = 0
CLASSIFICATION_TYPE = U
NORAD_CAT_ID   = 81844
ELEMENT_SET_NO = 999
REV_AT_EPOCH   = 63854
BSTAR          = .35095E-2
MEAN_MOTION_DOT = .10097E-3
MEAN_MOTION_DDOT = 0

CCSDS_OMM_VERS = 2.0
CREATION_DATE  = 
ORIGINATOR     = 

OBJECT_NAME    = UNKNOWN
OBJECT_ID      = 
CENTER_NAME    = EARTH
REF_FRAME      = TEME
TIME_SYSTEM    = UTC
MEAN_ELEMENT_THEORY = SGP/SGP4

EPOCH          = 2026-04-01T11:09:58.376736
MEAN_MOTION    = 14.85830675
ECCENTRICITY   = .008549
INCLINATION    = 97.6782
RA_OF_ASC_NODE = 279.5934
ARG_OF_PERICENTER = 304.3343
MEAN_ANOMALY   = 84.2359

EPHEMERIS_TYPE = 0
CLASSIFICATION_TYPE = U
NORAD_CAT_ID   = 81845
ELEMENT_SET_NO = 999
REV_AT_EPOCH   = 66581
BSTAR          = .27296E-3
MEAN_MOTION_DOT = .2479E-4
MEAN_MOTION_DDOT = 0

CCSDS_OMM_VERS = 2.0
CREATION_DATE  = 
ORIGINATOR     = 

OBJECT_NAME    = UNKNOWN
OBJECT_ID      = 
CENTER_NAME    = EARTH
REF_FRAME      = TEME
TIME_SYSTEM    = UTC
MEAN_ELEMENT_THEORY = SGP/SGP4

EPOCH          = 2026-04-02T11:39:58.021344
MEAN_MOTION    = 13.32817256
ECCENTRICITY   = .0770112
INCLINATION    = 65.6702
RA_OF_ASC_NODE = 167.8953
ARG_OF_PERICENTER = 325.4344
MEAN_ANOMALY   = 29.8826

EPHEMERIS_TYPE = 0
CLASSIFICATION_TYPE = U
NORAD_CAT_ID   = 81864
ELEMENT_SET_NO = 999
REV_AT_EPOCH   = 56559
BSTAR          = .5362E-3
MEAN_MOTION_DOT = .138E-4
MEAN_MOTION_DDOT = 0

CCSDS_OMM_VERS = 2.0
CREATION_DATE  = 
ORIGINATOR     = 

OBJECT_NAME    = UNKNOWN
OBJECT_ID      = 
CENTER_NAME    = EARTH
REF_FRAME      = TEME
TIME_SYSTEM    = UTC
MEAN_ELEMENT_THEORY = SGP/SGP4

EPOCH          = 2026-04-02T20:08:58.060896
MEAN_MOTION    = 13.88330954
ECCENTRICITY   = .0062888
INCLINATION    = 82.8025
RA_OF_ASC_NODE = 302.8940
ARG_OF_PERICENTER = 48.4284
MEAN_ANOMALY   = 329.9135

EPHEMERIS_TYPE = 0
CLASSIFICATION_TYPE = U
NORAD_CAT_ID   = 81865
ELEMENT_SET_NO = 999
REV_AT_EPOCH   = 62396
BSTAR          = .11602E-2
MEAN_MOTION_DOT = .1426E-4
MEAN_MOTION_DDOT = 0

CCSDS_OMM_VERS = 2.0
CREATION_DATE  = 
ORIGINATOR     = 

OBJECT_NAME    = UNKNOWN
OBJECT_ID      = 
CENTER_NAME    = EARTH
REF_FRAME      = TEME
TIME_SYSTEM    = UTC
MEAN_ELEMENT_THEORY = SGP/SGP4

EPOCH          = 2026-04-03T22:05:13.547616
MEAN_MOTION    = 13.76971177
ECCENTRICITY   = .0020689
INCLINATION    = 100.0579
RA_OF_ASC_NODE = 88.4950
ARG_OF_PERICENTER = 345.5855
MEAN_ANOMALY   = 14.4701

EPHEMERIS_TYPE = 0
CLASSIFICATION_TYPE = U
NORAD_CAT_ID   = 81893
ELEMENT_SET_NO = 999
REV_AT_EPOCH   = 61951
BSTAR          = .14617E-2
MEAN_MOTION_DOT = .1395E-4
MEAN_MOTION_DDOT = 0

CCSDS_OMM_VERS = 2.0
CREATION_DATE  = 
ORIGINATOR     = 

OBJECT_NAME    = UNKNOWN
OBJECT_ID      = 
CENTER_NAME    = EARTH
REF_FRAME      = TEME
TIME_SYSTEM    = UTC
MEAN_ELEMENT_THEORY = SGP/SGP4

EPOCH          = 2026-04-02T06:31:17.030496
MEAN_MOTION    = 13.20571109
ECCENTRICITY   = .0169446
INCLINATION    = 102.4124
RA_OF_ASC_NODE = 219.0034
ARG_OF_PERICENTER = 339.1803
MEAN_ANOMALY   = 20.2460

EPHEMERIS_TYPE = 0
CLASSIFICATION_TYPE = U
NORAD_CAT_ID   = 81899
ELEMENT_SET_NO = 999
REV_AT_EPOCH   = 59357
BSTAR          = .54362E-2
MEAN_MOTION_DOT = .2319E-4
MEAN_MOTION_DDOT = 0

CCSDS_OMM_VERS = 2.0
CREATION_DATE  = 
ORIGINATOR     = 

OBJECT_NAME    = UNKNOWN
OBJECT_ID      = 
CENTER_NAME    = EARTH
REF_FRAME      = TEME
TIME_SYSTEM    = UTC
MEAN_ELEMENT_THEORY = SGP/SGP4

EPOCH          = 2026-03-21T00:40:32.795040
MEAN_MOTION    = 13.15483007
ECCENTRICITY   = .0843178
INCLINATION    = 65.7092
RA_OF_ASC_NODE = 189.9770
ARG_OF_PERICENTER = 71.9683
MEAN_ANOMALY   = 297.1320

EPHEMERIS_TYPE = 0
CLASSIFICATION_TYPE = U
NORAD_CAT_ID   = 81921
ELEMENT_SET_NO = 999
REV_AT_EPOCH   = 3871
BSTAR          = .17021E-3
MEAN_MOTION_DOT = .337E-5
MEAN_MOTION_DDOT = 0

CCSDS_OMM_VERS = 2.0
CREATION_DATE  = 
ORIGINATOR     = 

OBJECT_NAME    = UNKNOWN
OBJECT_ID      = 
CENTER_NAME    = EARTH
REF_FRAME      = TEME
TIME_SYSTEM    = UTC
MEAN_ELEMENT_THEORY = SGP/SGP4

EPOCH          = 2026-04-02T13:39:14.681088
MEAN_MOTION    = 12.42654393
ECCENTRICITY   = .067873
INCLINATION    = 66.4176
RA_OF_ASC_NODE = 299.4289
ARG_OF_PERICENTER = 298.0528
MEAN_ANOMALY   = 83.8029

EPHEMERIS_TYPE = 0
CLASSIFICATION_TYPE = U
NORAD_CAT_ID   = 81946
ELEMENT_SET_NO = 999
REV_AT_EPOCH   = 56165
BSTAR          = .1077E-2
MEAN_MOTION_DOT = .281E-5
MEAN_MOTION_DDOT = 0

CCSDS_OMM_VERS = 2.0
CREATION_DATE  = 
ORIGINATOR     = 

OBJECT_NAME    = UNKNOWN
OBJECT_ID      = 
CENTER_NAME    = EARTH
REF_FRAME      = TEME
TIME_SYSTEM    = UTC
MEAN_ELEMENT_THEORY = SGP/SGP4

EPOCH          = 2026-04-03T14:25:20.684640
MEAN_MOTION    = 14.54049684
ECCENTRICITY   = .0367441
INCLINATION    = 66.0749
RA_OF_ASC_NODE = 215.7845
ARG_OF_PERICENTER = 72.1795
MEAN_ANOMALY   = 291.9033

EPHEMERIS_TYPE = 0
CLASSIFICATION_TYPE = U
NORAD_CAT_ID   = 81947
ELEMENT_SET_NO = 999
REV_AT_EPOCH   = 64727
BSTAR          = .73041E-3
MEAN_MOTION_DOT = .7579E-4
MEAN_MOTION_DDOT = 0

CCSDS_OMM_VERS = 2.0
CREATION_DATE  = 
ORIGINATOR     = 

OBJECT_NAME    = UNKNOWN
OBJECT_ID      = 
CENTER_NAME    = EARTH
REF_FRAME      = TEME
TIME_SYSTEM    = UTC
MEAN_ELEMENT_THEORY = SGP/SGP4

EPOCH          = 2026-04-04T16:01:00.291936
MEAN_MOTION    = 13.95877435
ECCENTRICITY   = .0035996
INCLINATION    = 66.5864
RA_OF_ASC_NODE = 338.3135
ARG_OF_PERICENTER = 0.2780
MEAN_ANOMALY   = 359.8313

EPHEMERIS_TYPE = 0
CLASSIFICATION_TYPE = U
NORAD_CAT_ID   = 81964
ELEMENT_SET_NO = 999
REV_AT_EPOCH   = 62980
BSTAR          = .29525E-3
MEAN_MOTION_DOT = .327E-5
MEAN_MOTION_DDOT = 0

CCSDS_OMM_VERS = 2.0
CREATION_DATE  = 
ORIGINATOR     = 

OBJECT_NAME    = UNKNOWN
OBJECT_ID      = 
CENTER_NAME    = EARTH
REF_FRAME      = TEME
TIME_SYSTEM    = UTC
MEAN_ELEMENT_THEORY = SGP/SGP4

EPOCH          = 2026-04-03T07:09:44.676864
MEAN_MOTION    = 15.13841774
ECCENTRICITY   = .0007174
INCLINATION    = 86.6787
RA_OF_ASC_NODE = 104.9015
ARG_OF_PERICENTER = 112.8745
MEAN_ANOMALY   = 247.3253

EPHEMERIS_TYPE = 0
CLASSIFICATION_TYPE = U
NORAD_CAT_ID   = 81969
ELEMENT_SET_NO = 999
REV_AT_EPOCH   = 45703
BSTAR          = .10942E-2
MEAN_MOTION_DOT = .19837E-3
MEAN_MOTION_DDOT = 0

CCSDS_OMM_VERS = 2.0
CREATION_DATE  = 
ORIGINATOR     = 

OBJECT_NAME    = UNKNOWN
OBJECT_ID      = 
CENTER_NAME    = EARTH
REF_FRAME      = TEME
TIME_SYSTEM    = UTC
MEAN_ELEMENT_THEORY = SGP/SGP4

EPOCH          = 2026-03-26T17:48:52.884000
MEAN_MOTION    = 14.05250460
ECCENTRICITY   = .0514998
INCLINATION    = 65.7465
RA_OF_ASC_NODE = 211.5880
ARG_OF_PERICENTER = 245.9389
MEAN_ANOMALY   = 108.7001

EPHEMERIS_TYPE = 0
CLASSIFICATION_TYPE = U
NORAD_CAT_ID   = 81995
ELEMENT_SET_NO = 999
REV_AT_EPOCH   = 61883
BSTAR          = .12048E-2
MEAN_MOTION_DOT = .6498E-4
MEAN_MOTION_DDOT = 0

