UNKNOWN                 
1 81844U          26091.00430442  .00010097  00000+0  35095-2 0  9990
2 81844  82.9137 192.9270 0062018 176.4212 183.7434 14.34316426638547
UNKNOWN                 
1 81845U          26091.46525899  .00002479  00000+0  27296-3 0  9992
2 81845  97.6782 279.5934 0085490 304.3343  84.2359 14.85830675665816
UNKNOWN                 
1 81864U          26092.48608821  .00001380  00000+0  53620-3 0  9993
2 81864  65.6702 167.8953 0770112 325.4344  29.8826 13.32817256565590
UNKNOWN                 
1 81865U          26092.83956089  .00001426  00000+0  11602-2 0  9999
2 81865  82.8025 302.8940 0062888  48.4284 329.9135 13.88330954623965
UNKNOWN                 
1 81893U          26093.92029569  .00001395  00000+0  14617-2 0  9999
2 81893 100.0579  88.4950 0020689 345.5855  14.4701 13.76971177619515
UNKNOWN                 
1 81899U          26092.27172489  .00002319  00000+0  54362-2 0  9990
2 81899 102.4124 219.0034 0169446 339.1803  20.2460 13.20571109593579
UNKNOWN                 
1 81921U          26080.02815735  .00000337  00000+0  17021-3 0  9994
2 81921  65.7092 189.9770 0843178  71.9683 297.1320 13.15483007 38713
UNKNOWN                 
1 81946U          26092.56891992  .00000281  00000+0  10770-2 0  9993
2 81946  66.4176 299.4289 0678730 298.0528  83.8029 12.42654393561650
UNKNOWN                 
1 81947U          26093.60093385  .00007579  00000+0  73041-3 0  9998
2 81947  66.0749 215.7845 0367441  72.1795 291.9033 14.54049684647279
UNKNOWN                 
1 81964U          26094.66736449  .00000327  00000+0  29525-3 0  9991
2 81964  66.5864 338.3135 0035996   0.2780 359.8313 13.95877435629809
UNKNOWN                 
1 81969U          26093.29843376  .00019837  00000+0  10942-2 0  9990
2 81969  86.6787 104.9015 0007174 112.8745 247.3253 15.13841774457030
UNKNOWN                 
1 81995U          26085.74227875  .00006498  00000+0  12048-2 0  9998
2 81995  65.7465 211.5880 0514998 245.9389 108.7001 14.05250460618838
